[{"OBJECT_NAME":"OPS 5712 (P\/L 160)","OBJECT_ID":"1967-053A","EPOCH":"2026-03-09T23:15:46.773504","MEAN_MOTION":14.76189959,"ECCENTRICITY":0.000418,"INCLINATION":69.9166,"RA_OF_ASC_NODE":281.2067,"ARG_OF_PERICENTER":223.4883,"MEAN_ANOMALY":136.5935,"EPHEMERIS_TYPE":0,"CLASSIFICATION_TYPE":"U","NORAD_CAT_ID":2826,"ELEMENT_SET_NO":999,"REV_AT_EPOCH":5158,"BSTAR":0.0012899504,"MEAN_MOTION_DOT":8.87e-5,"MEAN_MOTION_DDOT":0},{"OBJECT_NAME":"SL-12 DEB","OBJECT_ID":"1989-039BS","EPOCH":"2026-03-08T17:35:03.517440","MEAN_MOTION":4.70264485,"ECCENTRICITY":0.53645013,"INCLINATION":65.1184,"RA_OF_ASC_NODE":304.2147,"ARG_OF_PERICENTER":81.1672,"MEAN_ANOMALY":333.3236,"EPHEMERIS_TYPE":0,"CLASSIFICATION_TYPE":"U","NORAD_CAT_ID":29414,"ELEMENT_SET_NO":999,"REV_AT_EPOCH":21254,"BSTAR":0.0070354406,"MEAN_MOTION_DOT":1.696e-5,"MEAN_MOTION_DDOT":0}]
